{
  "type": "FeatureCollection",
  "features": [
    {
      "type": "Feature",
      "properties": {
        "norad_id": 31307,
        "name": "GALAXY 17 (G-17)",
        "group": "intelsat",
        "lat": 0.05164166486886715,
        "lon": 83.05158101934595,
        "alt_km": 35809.758806231,
        "timestamp": "2025-12-12T05:47:28.439587+00:00",
        "meta_object_name": "GALAXY 17 (G-17)",
        "meta_object_id": "2007-016B",
        "meta_epoch": "2025-12-11T23:22:50.388384",
        "meta_mean_motion": 1.00272491,
        "meta_eccentricity": 0.00058889,
        "meta_inclination": 2.4984,
        "meta_ra_of_asc_node": 82.2932,
        "meta_arg_of_pericenter": 163.9118,
        "meta_mean_anomaly": 100.448,
        "meta_ephemeris_type": 0,
        "meta_classification_type": "U",
        "meta_norad_cat_id": 31307,
        "meta_element_set_no": 999,
        "meta_rev_at_epoch": 6792,
        "meta_bstar": 0,
        "meta_mean_motion_dot": -1.98e-06,
        "meta_mean_motion_ddot": 0,
        "tle_line1": "1 31307U 07016B   25345.97419431 -.00000198  00000+0  00000+0 0  9992",
        "tle_line2": "2 31307   2.4984  82.2932 0005888 163.9118 100.4480  1.00272491 67924"
      },
      "geometry": {
        "type": "Point",
        "coordinates": [
          83.05158101934595,
          0.05164166486886715
        ]
      }
    },
    {
      "type": "Feature",
      "properties": {
        "norad_id": 31862,
        "name": "DIRECTV 10",
        "group": "intelsat",
        "lat": -0.0056055007072721525,
        "lon": 65.26949685429949,
        "alt_km": 35787.47795957225,
        "timestamp": "2025-12-12T05:47:28.439599+00:00",
        "meta_object_name": "DIRECTV 10",
        "meta_object_id": "2007-032A",
        "meta_epoch": "2025-12-11T14:44:08.030112",
        "meta_mean_motion": 1.00271436,
        "meta_eccentricity": 3.191e-05,
        "meta_inclination": 0.0124,
        "meta_ra_of_asc_node": 167.5307,
        "meta_arg_of_pericenter": 60.5816,
        "meta_mean_anomaly": 330.7109,
        "meta_ephemeris_type": 0,
        "meta_classification_type": "U",
        "meta_norad_cat_id": 31862,
        "meta_element_set_no": 999,
        "meta_rev_at_epoch": 4371,
        "meta_bstar": 0,
        "meta_mean_motion_dot": -9.6e-07,
        "meta_mean_motion_ddot": 0,
        "tle_line1": "1 31862U 07032A   25345.61398183 -.00000096  00000+0  00000+0 0  9994",
        "tle_line2": "2 31862   0.0124 167.5307 0000319  60.5816 330.7109  1.00271436 43719"
      },
      "geometry": {
        "type": "Point",
        "coordinates": [
          65.26949685429949,
          -0.0056055007072721525
        ]
      }
    },
    {
      "type": "Feature",
      "properties": {
        "norad_id": 32253,
        "name": "INTELSAT 11 (IS-11)",
        "group": "intelsat",
        "lat": -2.1617580211406997,
        "lon": 36.01973239124284,
        "alt_km": 36165.58185002275,
        "timestamp": "2025-12-12T05:47:28.439611+00:00",
        "meta_object_name": "INTELSAT 11 (IS-11)",
        "meta_object_id": "2007-044B",
        "meta_epoch": "2025-12-11T23:09:44.144064",
        "meta_mean_motion": 0.99048438,
        "meta_eccentricity": 0.00089295,
        "meta_inclination": 3.0785,
        "meta_ra_of_asc_node": 80.9849,
        "meta_arg_of_pericenter": 165.5765,
        "meta_mean_anomaly": 50.8768,
        "meta_ephemeris_type": 0,
        "meta_classification_type": "U",
        "meta_norad_cat_id": 32253,
        "meta_element_set_no": 999,
        "meta_rev_at_epoch": 6659,
        "meta_bstar": 0,
        "meta_mean_motion_dot": 8.1e-07,
        "meta_mean_motion_ddot": 0,
        "tle_line1": "1 32253U 07044B   25345.96509426  .00000081  00000+0  00000+0 0  9997",
        "tle_line2": "2 32253   3.0785  80.9849 0008929 165.5765  50.8768  0.99048438 66596"
      },
      "geometry": {
        "type": "Point",
        "coordinates": [
          36.01973239124284,
          -2.1617580211406997
        ]
      }
    },
    {
      "type": "Feature",
      "properties": {
        "norad_id": 32388,
        "name": "HORIZONS-2",
        "group": "intelsat",
        "lat": 0.4322999511366557,
        "lon": 94.24989909751243,
        "alt_km": 35807.38545292836,
        "timestamp": "2025-12-12T05:47:28.439623+00:00",
        "meta_object_name": "HORIZONS-2",
        "meta_object_id": "2007-063B",
        "meta_epoch": "2025-12-11T23:25:57.588672",
        "meta_mean_motion": 1.00270012,
        "meta_eccentricity": 0.00049272,
        "meta_inclination": 2.1197,
        "meta_ra_of_asc_node": 82.9688,
        "meta_arg_of_pericenter": 189.3518,
        "meta_mean_anomaly": 86.3047,
        "meta_ephemeris_type": 0,
        "meta_classification_type": "U",
        "meta_norad_cat_id": 32388,
        "meta_element_set_no": 999,
        "meta_rev_at_epoch": 6593,
        "meta_bstar": 0,
        "meta_mean_motion_dot": -2.45e-06,
        "meta_mean_motion_ddot": 0,
        "tle_line1": "1 32388U 07063B   25345.97636098 -.00000245  00000+0  00000+0 0  9997",
        "tle_line2": "2 32388   2.1197  82.9688 0004927 189.3518  86.3047  1.00270012 65938"
      },
      "geometry": {
        "type": "Point",
        "coordinates": [
          94.24989909751243,
          0.4322999511366557
        ]
      }
    },
    {
      "type": "Feature",
      "properties": {
        "norad_id": 32729,
        "name": "DIRECTV 11",
        "group": "intelsat",
        "lat": 0.003175797770449943,
        "lon": 68.8554573356007,
        "alt_km": 35787.32266595972,
        "timestamp": "2025-12-12T05:47:28.439635+00:00",
        "meta_object_name": "DIRECTV 11",
        "meta_object_id": "2008-013A",
        "meta_epoch": "2025-12-11T21:35:58.588224",
        "meta_mean_motion": 1.00271084,
        "meta_eccentricity": 5.409e-05,
        "meta_inclination": 0.0355,
        "meta_ra_of_asc_node": 183.5345,
        "meta_arg_of_pericenter": 2.2866,
        "meta_mean_anomaly": 119.8352,
        "meta_ephemeris_type": 0,
        "meta_classification_type": "U",
        "meta_norad_cat_id": 32729,
        "meta_element_set_no": 999,
        "meta_rev_at_epoch": 4371,
        "meta_bstar": 0,
        "meta_mean_motion_dot": -1.17e-06,
        "meta_mean_motion_ddot": 0,
        "tle_line1": "1 32729U 08013A   25345.89998366 -.00000117  00000+0  00000+0 0  9990",
        "tle_line2": "2 32729   0.0355 183.5345 0000540   2.2866 119.8352  1.00271084 43717"
      },
      "geometry": {
        "type": "Point",
        "coordinates": [
          68.8554573356007,
          0.003175797770449943
        ]
      }
    },
    {
      "type": "Feature",
      "properties": {
        "norad_id": 32951,
        "name": "GALAXY 18 (G-18)",
        "group": "intelsat",
        "lat": 0.036719106054361815,
        "lon": 45.06863688321112,
        "alt_km": 35796.340339643044,
        "timestamp": "2025-12-12T05:47:28.439652+00:00",
        "meta_object_name": "GALAXY 18 (G-18)",
        "meta_object_id": "2008-024A",
        "meta_epoch": "2025-12-11T23:11:58.928928",
        "meta_mean_motion": 1.0027135,
        "meta_eccentricity": 0.00030553,
        "meta_inclination": 0.0197,
        "meta_ra_of_asc_node": 321.1345,
        "meta_arg_of_pericenter": 302.211,
        "meta_mean_anomaly": 42.5635,
        "meta_ephemeris_type": 0,
        "meta_classification_type": "U",
        "meta_norad_cat_id": 32951,
        "meta_element_set_no": 999,
        "meta_rev_at_epoch": 4397,
        "meta_bstar": 0,
        "meta_mean_motion_dot": 3.4e-07,
        "meta_mean_motion_ddot": 0,
        "tle_line1": "1 32951U 08024A   25345.96665427  .00000034  00000+0  00000+0 0  9993",
        "tle_line2": "2 32951   0.0197 321.1345 0003055 302.2110  42.5635  1.00271350 43977"
      },
      "geometry": {
        "type": "Point",
        "coordinates": [
          45.06863688321112,
          0.036719106054361815
        ]
      }
    },
    {
      "type": "Feature",
      "properties": {
        "norad_id": 33153,
        "name": "INTELSAT 25 (IS-25)",
        "group": "intelsat",
        "lat": 1.8058593244671657,
        "lon": 136.49465689249905,
        "alt_km": 35798.20776959458,
        "timestamp": "2025-12-12T05:47:28.439665+00:00",
        "meta_object_name": "INTELSAT 25 (IS-25)",
        "meta_object_id": "2008-034A",
        "meta_epoch": "2025-12-11T21:55:19.234848",
        "meta_mean_motion": 1.00271635,
        "meta_eccentricity": 0.00050774,
        "meta_inclination": 2.2259,
        "meta_ra_of_asc_node": 82.6571,
        "meta_arg_of_pericenter": 178.7851,
        "meta_mean_anomaly": 116.7626,
        "meta_ephemeris_type": 0,
        "meta_classification_type": "U",
        "meta_norad_cat_id": 33153,
        "meta_element_set_no": 999,
        "meta_rev_at_epoch": 6381,
        "meta_bstar": 0,
        "meta_mean_motion_dot": -2.15e-06,
        "meta_mean_motion_ddot": 0,
        "tle_line1": "1 33153U 08034A   25345.91341707 -.00000215  00000+0  00000+0 0  9998",
        "tle_line2": "2 33153   2.2259  82.6571 0005077 178.7851 116.7626  1.00271635 63814"
      },
      "geometry": {
        "type": "Point",
        "coordinates": [
          136.49465689249905,
          1.8058593244671657
        ]
      }
    }
  ]
}